1 31025U 99025BDT 18242.35740591  .00000104  00000-0  63964-4 0  9994
2 31025  98.7165 284.5330 0186882 101.9182 260.3012 14.14670299591203
1 31026U 99025BDU 18242.07737448  .00000028  00000-0  58782-4 0  9998
2 31026  98.7972 337.1337 0136327 187.4927 296.7190 13.82261007578209
1 31027U 99025BDV 17049.38198583  .00000406  00000-0  21962-3 0  9997
2 31027  99.0183 109.1279 0078961 217.7757 141.6964 14.16710760510506
1 31028U 99025BDW 18241.06359500  .00000035  00000-0  57108-4 0  9996
2 31028  98.7146 332.6893 0168767  23.3405 337.5302 13.87222686580143
1 31029U 99025BDX 18241.93221251 +.00000154 +00000-0 +74453-4 0  9998
2 31029 098.9164 017.9504 0093956 268.1765 219.0025 14.30125487597192
1 31030U 99025BDY 18241.05428373  .00000435  00000-0  24691-3 0  9997
2 31030  99.0181 264.1212 0032540 119.4880 303.6564 14.14994646590313
1 31031U 99025BDZ 18241.39108416 +.00000175 +00000-0 +11021-3 0  9992
2 31031 099.1961 035.5834 0029613 167.8349 246.6014 14.16996060591204
1 31032U 99025BEA 18241.34128507 +.00000370 +00000-0 +30167-3 0  9990
2 31032 099.2477 185.0479 0155288 206.8606 306.1945 13.90695806578869
1 31033U 99025BEB 18241.33433049 +.00000042 +00000-0 +33005-4 0  9991
2 31033 098.5303 288.8993 0159242 356.2305 063.8208 14.24413263594223
1 31035U 99025BED 18242.05737593  .00000619  00000-0  20378-3 0  9992
2 31035  98.7176 322.6605 0251070 135.5132 346.6081 14.25385930593017
1 31036U 99025BEE 18241.02551019  .00000113  00000-0  42686-4 0  9992
2 31036  98.9046 157.7701 0145108 295.8090 121.1316 14.45415014603341
1 31037U 99025BEF 18240.97028449  .00010440  00000-0  83151-3 0  9997
2 31037  99.0387 240.5579 0016389 280.6789  79.2585 15.00504685605013
1 31038U 99025BEG 18241.91783908 +.00000195 +00000-0 +76728-4 0  9990
2 31038 099.0158 137.3412 0095434 151.5793 209.0644 14.37959104599243
1 31040U 99025BEJ 18242.05102455  .00000078  00000-0  62478-4 0  9998
2 31040  98.7379 273.8837 0064241 257.9345 130.8621 14.14435106590557
1 31041U 99025BEK 18242.14106750  .00000665  00000-0  45922-3 0  9997
2 31041  99.1483 198.7301 0117117 125.7053 301.9163 13.99401085581721
1 31042U 99025BEL 18241.88189529 +.00001882 +00000-0 +35167-3 0  9995
2 31042 099.0448 211.4967 0066249 310.7857 048.7606 14.64961410603932
1 31043U 99025BEM 18241.88628649 +.00000287 +00000-0 +20575-3 0  9992
2 31043 099.0319 272.2517 0041975 252.9756 232.8424 14.04739151585864
1 31044U 99025BEN 18241.16777704 +.00003032 +00000-0 +29339-3 0  9999
2 31044 099.4152 140.1869 0059049 207.1737 152.6384 14.92503266608963
1 31046U 99025BEQ 18241.55398285  .00001229  00000-0  60730-3 0  9993
2 31046  99.0442 249.8836 0102897 227.4796 257.1391 14.16606927587367
1 31047U 99025BER 18241.29575556 +.00000117 +00000-0 +90172-4 0  9992
2 31047 098.8447 273.1574 0027580 171.8957 249.1734 14.10165506588073
1 31048U 99025BES 18241.22105297 +.00001238 +00000-0 +55899-3 0  9998
2 31048 099.0617 335.5221 0068065 043.7649 016.9529 14.22802656596771
1 31049U 99025BET 18241.30285328  .00000390  00000-0  28125-3 0  9992
2 31049  99.0547 271.7914 0051994 340.0878  19.8257 14.02045274585179
1 31051U 99025BEV 18241.86148894  .00000219  00000-0  17353-3 0  9993
2 31051  99.1750 271.7964 0056748 329.5624  30.2251 14.01365350585010
1 31053U 99025BEX 18241.15668257  .00000427  00000-0  39831-3 0  9993
2 31053  98.7460 210.5961 0339378 283.5441  72.8115 13.63949905571413
1 31054U 99025BEY 18242.07661679  .00000064  00000-0  60601-4 0  9994
2 31054  98.9474 269.2956 0011278  99.0737 322.7223 14.10784315592875
1 31055U 99025BEZ 18241.92349804 -.00000071 +00000-0 -15276-4 0  9999
2 31055 099.0642 267.4029 0025669 187.8634 291.5816 14.07662693586512
1 31056U 99025BFA 18242.06195789  .00000069  00000-0  62108-4 0  9998
2 31056  98.7434 281.9507 0026729   5.5151  24.4353 14.11222319593461
1 31057U 99025BFB 18240.96441140  .00000414  00000-0  91965-4 0  9998
2 31057  99.2479 305.4512 0208684 357.8457   2.1815 14.51042845607289
1 31058U 99025BFC 18239.44233582  .00000392  00000-0  99830-4 0  9993
2 31058  99.5815 113.1154 0139800 127.5830 233.8153 14.51849607607417
1 31060U 99025BFE 18242.12378523  .00003349  00000-0  35970-3 0  9999
2 31060  99.1649   4.1848 0074423 160.7990 199.6054 14.87431754612970
1 31062U 99025BFG 18241.20689687 +.00000064 +00000-0 +10052-3 0  9990
2 31062 099.2627 142.7461 0175148 146.0126 006.3340 13.74455636576479
1 31063U 99025BFH 18241.46097428 +.00000980 +00000-0 +34144-3 0  9990
2 31063 099.8626 115.8405 0038537 273.9217 210.6057 14.37741804359610
1 31064U 99025BFJ 18241.32992281 +.00000059 +00000-0 +37119-4 0  9990
2 31064 098.6279 278.5171 0252732 150.2530 270.9261 14.18361957594870
1 31065U 99025BFK 18240.95193431  .00000372  00000-0  19566-3 0  9992
2 31065  98.7301 291.9672 0040766 191.7810 168.2416 14.19553479595466
1 31066U 99025BFL 18241.23267176 +.00001117 +00000-0 +89122-4 0  9997
2 31066 099.0336 037.7834 0188329 052.9544 308.8730 14.90150962617572
1 31067U 99025BFM 18241.71678888  .00007824  00000-0  42148-3 0  9994
2 31067  99.0608  52.8530 0063338 135.7882 224.8430 15.13440126618130
1 31068U 99025BFN 18241.99811931  .00000032  00000-0  38252-4 0  9999
2 31068  98.7931 297.3118 0169709  91.5077 270.5539 14.07312598591735
1 31069U 99025BFP 18242.05223067  .00000361  00000-0  11307-3 0  9991
2 31069  99.0515 175.5852 0131743  67.6524 293.8566 14.42401107603655
1 31071U 99025BFR 18241.90140848 +.00000347 +00000-0 +12917-3 0  9994
2 31071 099.0511 122.7303 0069876 220.1090 139.4925 14.37366487271492
1 31072U 99025BFS 18242.38017567  .00000196  00000-0  95782-4 0  9993
2 31072  99.3380  89.9226 0237053  60.0778  60.9483 14.15643274592701
1 31073U 99025BFT 18241.77903887 +.00000858 +00000-0 +50403-3 0  9990
2 31073 099.0635 344.7058 0055788 217.7302 141.9950 14.10122509594501
1 31074U 99025BFU 18241.71478632  .00000710  00000-0  50686-3 0  9990
2 31074  99.0072 156.0145 0105556  91.3885 269.9373 13.97867006582823
1 31077U 99025BFX 18241.83281045  .00001632  00000-0  26280-3 0  9993
2 31077  99.0146 245.7902 0109332 106.9198 254.4025 14.69230108608808
1 31078U 99025BFY 18241.22271132 +.00000263 +00000-0 +14130-3 0  9993
2 31078 099.0199 225.7796 0122775 180.6135 247.4405 14.17494953591383
1 31079U 99025BFZ 15253.31222079  .00001357  00000-0  89508-3 0  9996
2 31079  99.0846 284.2475 0062121 103.4289 251.3901 14.02529851434435
1 31080U 99025BGA 18241.43308626  .00000563  00000-0  35485-3 0  9997
2 31080  99.0739 319.5436 0083302  16.5387 343.8469 14.06754379586730
1 31081U 99025BGB 18241.28323297 +.00000018 +00000-0 +37871-4 0  9999
2 31081 099.0480 266.4339 0049345 123.1899 297.2168 14.05828080590483
1 31082U 99025BGC 18237.34383354  .00000398  00000-0  25643-3 0  9996
2 31082  98.8988 280.1519 0075408 170.2250 190.0406 14.07239213587623
1 31083U 99025BGD 18241.85838483  .00000689  00000-0  28576-3 0  9997
2 31083  98.7445 303.0141 0049647 278.8842 147.5431 14.29138993595255
1 31085U 99025BGF 18241.80101814 +.00000068 +00000-0 +43079-4 0  9992
2 31085 098.7670 349.7679 0089010 197.9663 314.3932 14.28602727596958
1 31086U 99025BGG 18241.94666991 +.00000890 +00000-0 +11980-3 0  9998
2 31086 098.9713 283.5871 0122108 307.2422 174.3381 14.77431108611231
1 31087U 99025BGH 18242.33681891  .00000335  00000-0  83987-4 0  9990
2 31087  98.4037 286.8098 0214502 159.0613 263.3518 14.44934744602462
1 31088U 99025BGJ 18241.86627696 +.00000686 +00000-0 +39626-3 0  9990
2 31088 099.4344 107.9086 0036828 328.7337 087.8126 14.12410150588503
1 31089U 99025BGK 18240.50298878 +.00000147 +00000-0 +14258-3 0  9993
2 31089 098.9792 118.8604 0211512 224.1097 259.3773 13.84503153311781
1 31090U 99025BGL 18241.70924731 +.00000510 +00000-0 +72302-4 0  9991
2 31090 098.9860 324.2940 0169738 290.2417 068.0610 14.73372473613426
1 31091U 99025BGM 18242.15383552  .00000152  00000-0  23203-3 0  9999
2 31091  99.3157 355.9966 0284647 226.5731 131.1398 13.51369395569449
1 31092U 99025BGN 18242.04734605  .00000377  00000-0  53984-3 0  9995
2 31092  99.5302  86.2290 0341555 215.4896 142.3075 13.40893606562421
1 31093U 99025BGP 18241.05088522 +.00000127 +00000-0 +13913-3 0  9997
2 31093 098.6189 273.0419 0213052 205.7906 153.2503 13.78243121578086
1 31094U 99025BGQ 18241.65364294 +.00000586 +00000-0 +46171-3 0  9998
2 31094 099.0313 145.6051 0114948 156.9962 203.6404 13.92531540584910
1 31095U 99025BGR 18241.70734660 +.00000116 +00000-0 +23962-3 0  9995
2 31095 098.5825 158.4484 0503353 078.9888 286.7400 13.05730566546983
1 31097U 99025BGT 18242.11742609  .00000777  00000-0  39551-3 0  9999
2 31097  98.9330 294.9512 0019319  70.0280 343.8575 14.18678855591559
1 31098U 99025BGU 18241.74400057 +.00000860 +00000-0 +42133-3 0  9999
2 31098 098.9739 271.7895 0020842 059.0342 301.2878 14.20465400589744
1 31099U 99025BGV 18241.88157372 +.00000071 +00000-0 +49215-4 0  9997
2 31099 098.9802 015.8421 0066207 027.8054 123.8189 14.24873880595419
1 31131U 03049D   18242.35748590  .00000232  00000-0  97694-4 0  9999
2 31131  98.6441 191.6403 0135628 149.2009   3.0211 14.29704229592033
1 31137U 95021D   18241.44491337  .00000287  00000-0  10378-3 0  9992
2 31137  98.3832 203.2604 0004557  32.6413  94.5922 14.40480080762136
1 31139U 03049E   18241.72174145  .00000398  00000-0  11313-3 0  9992
2 31139  98.1928 214.8801 0093365   7.3092 352.9438 14.48058360598967
1 31144U 99025BGW 13276.33812043 +.00000206 +00000-0 +16243-3 0  9998
2 31144 099.2351 319.5653 0098724 273.1648 086.6520 14.00794070335052
1 31146U 99025BGY 18241.67380368 +.00000229 +00000-0 +10043-3 0  9991
2 31146 099.1677 042.9852 0230706 223.0707 135.2213 14.20742195589177
1 31147U 99025BGZ 18241.81351067 +.00003010 +00000-0 +32653-3 0  9994
2 31147 099.1598 347.7618 0123181 094.8983 034.8802 14.83712043605214
1 31148U 99025BHA 18241.55703855  .00000399  00000-0  14575-3 0  9992
2 31148  98.8364   3.1031 0158045 308.4235  50.2848 14.32150518593715
1 31149U 99025BHB 18241.87511666  .00001703  00000-0  37270-3 0  9992
2 31149  99.1584 207.1729 0114549 219.0340 195.2353 14.55313547598139
